NORAD_CAT_ID,OBJECT_NAME,OBJECT_TYPE,EPOCH,MEAN_MOTION,ECCENTRICITY,INCLINATION,RA_OF_ASC_NODE,ARG_OF_PERICENTER,MEAN_ANOMALY,BSTAR,MEAN_MOTION_DOT,MEAN_MOTION_DDOT,TLE_LINE0,TLE_LINE1,TLE_LINE2,SEMIMAJOR_AXIS,PERIOD,APOGEE,PERIGEE,DECAYED
50804.0,STARLINK-3323,PAYLOAD,2023-05-31 22:40:01,15.08845206,0.0001177,53.2189,25.5084,80.2955,279.8171,0.00018847,2.713e-05,0.0,0 STARLINK-3323,1 50804U 22001B   23151.94446669  .00002713  00000-0  18847-3 0  9996,2 50804  53.2189  25.5084 0001177  80.2955 279.8171 15.08845206 77655,6917.864,95.437,540.544,538.915,0.0
50804.0,STARLINK-3323,PAYLOAD,2023-06-01 22:30:49,15.08845557,0.0001157,53.2179,21.0497,84.7558,275.3566,5.7478e-05,6.27e-06,0.0,0 STARLINK-3323,1 50804U 22001B   23152.93807069  .00000627  00000-0  57478-4 0  9997,2 50804  53.2179  21.0497 0001157  84.7558 275.3566 15.08845557 77804,6917.863,95.437,540.529,538.928,0.0
50804.0,STARLINK-3323,PAYLOAD,2023-06-02 01:41:35,15.08847255,0.0001225,53.2176,20.4543,83.5421,276.571,7.0075e-05,8.28e-06,0.0,0 STARLINK-3323,1 50804U 22001B   23153.07054743  .00000828  00000-0  70075-4 0  9997,2 50804  53.2176  20.4543 0001225  83.5421 276.5710 15.08847255 79070,6917.858,95.437,540.571,538.876,0.0
50804.0,STARLINK-3323,PAYLOAD,2023-06-02 22:21:36,15.0883247,0.000124,53.2175,16.5881,92.2025,267.9109,-3.7038e-05,-8.77e-06,0.0,0 STARLINK-3323,1 50804U 22001B   23153.93167789 -.00000877  00000-0 -37038-4 0  9995,2 50804  53.2175  16.5881 0001240  92.2025 267.9109 15.08832470 77958,6917.903,95.438,540.626,538.911,0.0
50804.0,STARLINK-3323,PAYLOAD,2023-06-03 14:15:28,15.08839955,0.0001132,53.2184,13.6136,102.0532,258.0587,4.0286e-05,3.53e-06,0.0,0 STARLINK-3323,1 50804U 22001B   23154.59407893  .00000353  00000-0  40286-4 0  9997,2 50804  53.2184  13.6136 0001132 102.0532 258.0587 15.08839955 78050,6917.881,95.438,540.529,538.962,0.0
50804.0,STARLINK-3323,PAYLOAD,2023-06-03 22:12:23,15.08845755,0.0001184,53.2185,12.1272,93.7552,266.3575,7.6636e-05,9.32e-06,0.0,0 STARLINK-3323,1 50804U 22001B   23154.92527422  .00000932  00000-0  76636-4 0  9996,2 50804  53.2185  12.1272 0001184  93.7552 266.3575 15.08845755 78101,6917.863,95.437,540.547,538.909,0.0
50804.0,STARLINK-3323,PAYLOAD,2023-06-04 14:06:15,15.08835935,0.0001223,53.2188,9.1552,89.4654,270.6478,0.00012459,1.695e-05,0.0,0 STARLINK-3323,1 50804U 22001B   23155.58768060  .00001695  00000-0  12459-3 0  9993,2 50804  53.2188   9.1552 0001223  89.4654 270.6478 15.08835935 78200,6917.893,95.438,540.604,538.912,0.0
50804.0,STARLINK-3323,PAYLOAD,2023-06-04 18:52:25,15.08837618,0.0001207,53.2188,8.2632,88.3542,271.7588,9.6894e-05,1.254e-05,0.0,0 STARLINK-3323,1 50804U 22001B   23155.78640094  .00001254  00000-0  96894-4 0  9998,2 50804  53.2188   8.2632 0001207  88.3542 271.7588 15.08837618 79480,6917.888,95.438,540.588,538.918,0.0
50804.0,STARLINK-3323,PAYLOAD,2023-06-04 20:27:48,15.08838241,0.0001198,53.2185,7.9657,85.7318,274.3811,0.00010052,1.312e-05,0.0,0 STARLINK-3323,1 50804U 22001B   23155.85264062  .00001312  00000-0  10052-3 0  9999,2 50804  53.2185   7.9657 0001198  85.7318 274.3811 15.08838241 78245,6917.886,95.438,540.58,538.922,0.0
50804.0,STARLINK-3323,PAYLOAD,2023-06-05 13:57:02,15.08845141,0.0001234,53.2184,4.6941,87.9531,272.1602,7.7547e-05,9.47e-06,0.0,0 STARLINK-3323,1 50804U 22001B   23156.58127695  .00000947  00000-0  77547-4 0  9996,2 50804  53.2184   4.6941 0001234  87.9531 272.1602 15.08845141 78359,6917.865,95.437,540.583,538.876,0.0
50804.0,STARLINK-3323,PAYLOAD,2023-06-05 20:18:34,15.08847071,0.0001237,53.2184,3.5049,87.3327,272.7807,8.9577e-05,1.138e-05,0.0,0 STARLINK-3323,1 50804U 22001B   23156.84623454  .00001138  00000-0  89577-4 0  9998,2 50804  53.2184   3.5049 0001237  87.3327 272.7807 15.08847071 78397,6917.859,95.437,540.58,538.868,0.0
50804.0,STARLINK-3323,PAYLOAD,2023-06-05 21:53:57,15.08848614,0.0001234,53.2184,3.207,91.3278,268.7855,9.756e-05,1.265e-05,0.0,0 STARLINK-3323,1 50804U 22001B   23156.91247286  .00001265  00000-0  97560-4 0  9993,2 50804  53.2184   3.2070 0001234  91.3278 268.7855 15.08848614 79657,6917.854,95.437,540.573,538.865,0.0
50804.0,STARLINK-3323,PAYLOAD,2023-06-06 18:33:58,15.08842288,0.0001257,53.2187,359.3409,93.121,266.9926,5.9635e-05,6.61e-06,0.0,0 STARLINK-3323,1 50804U 22001B   23157.77359682  .00000661  00000-0  59635-4 0  9992,2 50804  53.2187 359.3409 0001257  93.1210 266.9926 15.08842288 78538,6917.873,95.437,540.608,538.869,0.0
50804.0,STARLINK-3323,PAYLOAD,2023-06-06 23:20:07,15.08846091,0.0001265,53.2185,358.4483,94.3069,265.8068,8.4506e-05,1.058e-05,0.0,0 STARLINK-3323,1 50804U 22001B   23157.97231312  .00001058  00000-0  84506-4 0  9999,2 50804  53.2185 358.4483 0001265  94.3069 265.8068 15.08846091 79815,6917.862,95.437,540.602,538.852,0.0
50804.0,STARLINK-3323,PAYLOAD,2023-06-07 12:03:13,15.08836756,0.0001172,53.2178,356.0697,91.0501,269.0626,-2.84e-05,-7.4e-06,0.0,0 STARLINK-3323,1 50804U 22001B   23158.50224268 -.00000740  00000-0 -28400-4 0  9991,2 50804  53.2178 356.0697 0001172  91.0501 269.0626 15.08836756 78643,6917.89,95.438,540.566,538.945,0.0
50804.0,STARLINK-3323,PAYLOAD,2023-06-07 18:24:46,15.08839315,0.0001146,53.2182,354.8806,84.9969,275.1154,-7.6486e-06,-4.1e-06,0.0,0 STARLINK-3323,1 50804U 22001B   23158.76720061 -.00000410  00000-0 -76486-5 0  9993,2 50804  53.2182 354.8806 0001146  84.9969 275.1154 15.08839315 79937,6917.882,95.438,540.54,538.955,0.0
50804.0,STARLINK-3323,PAYLOAD,2023-06-07 20:00:09,15.08842178,0.0001084,53.218,354.5828,95.5112,264.6004,1.308e-05,-8e-07,0.0,0 STARLINK-3323,1 50804U 22001B   23158.83343766 -.00000080  00000-0  13080-4 0  9996,2 50804  53.2180 354.5828 0001084  95.5112 264.6004 15.08842178 78695,6917.874,95.437,540.489,538.989,0.0
50804.0,STARLINK-3323,PAYLOAD,2023-06-08 11:54:00,15.08839676,0.0001055,53.2182,351.6116,99.9572,260.154,-1.4504e-06,-3.11e-06,0.0,0 STARLINK-3323,1 50804U 22001B   23159.49584140 -.00000311  00000-0 -14504-5 0  9993,2 50804  53.2182 351.6116 0001055  99.9572 260.1540 15.08839676 78797,6917.881,95.438,540.476,539.017,0.0
50804.0,STARLINK-3323,PAYLOAD,2023-06-08 19:50:56,15.08841368,9.81e-05,53.2177,350.1246,100.8528,259.2575,1.7374e-05,-1.1e-07,0.0,0 STARLINK-3323,1 50804U 22001B   23159.82704037 -.00000011  00000-0  17374-4 0  9992,2 50804  53.2177 350.1246 0000981 100.8528 259.2575 15.08841368 80093,6917.876,95.437,540.42,539.063,0.0
50804.0,STARLINK-3323,PAYLOAD,2023-06-09 13:20:11,15.08837362,9.95e-05,53.2178,346.8538,108.1297,251.9804,7.1288e-05,8.47e-06,0.0,0 STARLINK-3323,1 50804U 22001B   23160.55568372  .00000847  00000-0  71288-4 0  9994,2 50804  53.2178 346.8538 0000995 108.1297 251.9804 15.08837362 78954,6917.888,95.438,540.442,539.065,0.0
50804.0,STARLINK-3323,PAYLOAD,2023-06-09 21:17:06,15.08845487,0.0001027,53.2177,345.367,108.1514,251.959,0.00013253,1.822e-05,0.0,0 STARLINK-3323,1 50804U 22001B   23160.88687711  .00001822  00000-0  13253-3 0  9990,2 50804  53.2177 345.3670 0001027 108.1514 251.9590 15.08845487 79009,6917.864,95.437,540.439,539.018,0.0
50804.0,STARLINK-3323,PAYLOAD,2023-06-10 05:14:02,15.0883812,0.0001023,53.218,343.8787,101.66,258.4507,6.0296e-05,6.72e-06,0.0,0 STARLINK-3323,1 50804U 22001B   23161.21808371  .00000672  00000-0  60296-4 0  9997,2 50804  53.2180 343.8787 0001023 101.6600 258.4507 15.08838120 80306,6917.886,95.438,540.459,539.043,0.0
50804.0,STARLINK-3323,PAYLOAD,2023-06-10 21:07:53,15.08840317,0.0001232,53.2179,340.9038,97.3306,262.7826,8.9765e-05,1.141e-05,0.0,0 STARLINK-3323,1 50804U 22001B   23161.88048367  .00001141  00000-0  89765-4 0  9995,2 50804  53.2179 340.9038 0001232  97.3306 262.7826 15.08840317 79151,6917.879,95.438,540.597,538.892,0.0
50804.0,STARLINK-3323,PAYLOAD,2023-06-11 06:40:12,15.08838452,0.0001075,53.2182,339.1214,95.9133,264.1981,6.3297e-05,7.2e-06,0.0,0 STARLINK-3323,1 50804U 22001B   23162.27792600  .00000720  00000-0  63297-4 0  9999,2 50804  53.2182 339.1214 0001075  95.9133 264.1981 15.08838452 80469,6917.885,95.438,540.494,539.006,0.0
50804.0,STARLINK-3323,PAYLOAD,2023-06-11 11:26:22,15.08837954,0.0001083,53.2181,338.2294,95.3937,264.7179,6.3612e-05,7.25e-06,0.0,0 STARLINK-3323,1 50804U 22001B   23162.47664678  .00000725  00000-0  63612-4 0  9990,2 50804  53.2181 338.2294 0001083  95.3937 264.7179 15.08837954 79246,6917.887,95.438,540.501,539.002,0.0
50804.0,STARLINK-3323,PAYLOAD,2023-06-11 17:47:54,15.08841215,0.0001051,53.2183,337.0399,92.4617,267.6496,2.3357e-05,8.4e-07,0.0,0 STARLINK-3323,1 50804U 22001B   23162.74160625  .00000084  00000-0  23357-4 0  9993,2 50804  53.2183 337.0399 0001051  92.4617 267.6496 15.08841215 79282,6917.877,95.437,540.469,539.015,0.0
50804.0,STARLINK-3323,PAYLOAD,2023-06-12 17:38:44,15.08819567,0.0001058,53.2182,332.5795,87.8224,272.2889,-7.0161e-05,-1.404e-05,0.0,0 STARLINK-3323,1 50804U 22001B   23163.73523224 -.00001404  00000-0 -70161-4 0  9995,2 50804  53.2182 332.5795 0001058  87.8224 272.2889 15.08819567 80689,6917.943,95.439,540.54,539.076,0.0
50804.0,STARLINK-3323,PAYLOAD,2023-06-12 20:49:30,15.08822752,0.0001301,53.2188,331.9871,73.2614,286.8521,-5.7492e-05,-1.202e-05,0.0,0 STARLINK-3323,1 50804U 22001B   23163.86771244 -.00001202  00000-0 -57492-4 0  9994,2 50804  53.2188 331.9871 0001301  73.2614 286.8521 15.08822752 79453,6917.933,95.439,540.698,538.898,0.0
50804.0,STARLINK-3323,PAYLOAD,2023-06-13 11:07:57,15.08833753,7.59e-05,53.2188,329.3104,77.3166,282.7911,6.7041e-05,7.79e-06,0.0,0 STARLINK-3323,1 50804U 22001B   23164.46386319  .00000779  00000-0  67041-4 0  9993,2 50804  53.2188 329.3104 0000759  77.3166 282.7911 15.08833753 80796,6917.899,95.438,540.29,539.239,0.0
50804.0,STARLINK-3323,PAYLOAD,2023-06-13 20:40:15,15.08846672,0.0001643,53.218,327.5278,59.7654,300.3501,0.00021197,3.088e-05,0.0,0 STARLINK-3323,1 50804U 22001B   23164.86129264  .00003088  00000-0  21197-3 0  9998,2 50804  53.2180 327.5278 0001643  59.7654 300.3501 15.08846672 79603,6917.86,95.437,540.862,538.588,0.0
